NAVSTAR 77 (USA 289)    
1 43873U 18109A   24168.35257709  .00000031  00000+0  00000+0 0  9995
2 43873  55.2974 121.0614 0029012 195.3271 351.4640  2.00556120 40419
